[{"OBJECT_NAME":"STARLINK-5346","OBJECT_ID":"2023-065R","EPOCH":"2026-03-09T22:00:01.999584","MEAN_MOTION":15.05829958,"ECCENTRICITY":9.492e-5,"INCLINATION":43.001,"RA_OF_ASC_NODE":209.0716,"ARG_OF_PERICENTER":280.7419,"MEAN_ANOMALY":282.2916,"EPHEMERIS_TYPE":0,"CLASSIFICATION_TYPE":"U","NORAD_CAT_ID":56518,"ELEMENT_SET_NO":999,"REV_AT_EPOCH":577,"BSTAR":0.0043856072,"MEAN_MOTION_DOT":0.00065089,"MEAN_MOTION_DDOT":0},{"OBJECT_NAME":"JILIN-1 KUANFU 02A","OBJECT_ID":"2023-127A","EPOCH":"2026-03-09T22:42:00.221760","MEAN_MOTION":15.09948681,"ECCENTRICITY":0.0009702,"INCLINATION":97.5529,"RA_OF_ASC_NODE":164.1218,"ARG_OF_PERICENTER":318.2814,"MEAN_ANOMALY":41.7675,"EPHEMERIS_TYPE":0,"CLASSIFICATION_TYPE":"U","NORAD_CAT_ID":57696,"ELEMENT_SET_NO":999,"REV_AT_EPOCH":14065,"BSTAR":0.00045097028,"MEAN_MOTION_DOT":7.263e-5,"MEAN_MOTION_DDOT":0}]
